[
    {
        "Altitude(m)": 562976.3090235491,
        "Argument of Periapsis(deg)": 0.013245982221427002,
        "Eccentricity": 0.0,
        "Inclination(deg)": 53.0,
        "Latitude(deg)": -31.231714937263785,
        "Longitude(deg)": 100.45237353803473,
        "Mean Anomaly(deg)": -139.81681426484488,
        "RAAN(deg)": 354.9802867370561,
        "Satellite Name": "Starlink Shell 1 1574",
        "Satellite Number": 1574,
        "Semi-Major Axis(m)": 6931778.249405717,
        "Time(s)": 380
    },
    {
        "Altitude(m)": 563151.6168479552,
        "Argument of Periapsis(deg)": 0.013594560700938237,
        "Eccentricity": 0.0,
        "Inclination(deg)": 53.0,
        "Latitude(deg)": -31.67751784066162,
        "Longitude(deg)": 100.92669136575674,
        "Mean Anomaly(deg)": -139.1899830612881,
        "RAAN(deg)": 354.97976796697856,
        "Satellite Name": "Starlink Shell 1 1574",
        "Satellite Number": 1574,
        "Semi-Major Axis(m)": 6931778.249405717,
        "Time(s)": 390
    },
    {
        "Altitude(m)": 563326.8410829171,
        "Argument of Periapsis(deg)": 0.013943139180449475,
        "Eccentricity": 0.0,
        "Inclination(deg)": 53.0,
        "Latitude(deg)": -32.121173405474686,
        "Longitude(deg)": 101.4059281864023,
        "Mean Anomaly(deg)": -138.56315185773144,
        "RAAN(deg)": 354.9792491969011,
        "Satellite Name": "Starlink Shell 1 1574",
        "Satellite Number": 1574,
        "Semi-Major Axis(m)": 6931778.249405717,
        "Time(s)": 400
    },
    {
        "Altitude(m)": 563501.9154809451,
        "Argument of Periapsis(deg)": 0.014291717659960712,
        "Eccentricity": 0.0,
        "Inclination(deg)": 53.0,
        "Latitude(deg)": -32.56262495495146,
        "Longitude(deg)": 101.89019382714193,
        "Mean Anomaly(deg)": -137.9363206541747,
        "RAAN(deg)": 354.97873042682363,
        "Satellite Name": "Starlink Shell 1 1574",
        "Satellite Number": 1574,
        "Semi-Major Axis(m)": 6931778.249405717,
        "Time(s)": 410
    },
    {
        "Altitude(m)": 563676.7737152785,
        "Argument of Periapsis(deg)": 0.014640296139471948,
        "Eccentricity": 0.0,
        "Inclination(deg)": 53.0,
        "Latitude(deg)": -33.001814511689616,
        "Longitude(deg)": 102.37959876064508,
        "Mean Anomaly(deg)": -137.309489450618,
        "RAAN(deg)": 354.97821165674617,
        "Satellite Name": "Starlink Shell 1 1574",
        "Satellite Number": 1574,
        "Semi-Major Axis(m)": 6931778.249405717,
        "Time(s)": 420
    },
    {
        "Altitude(m)": 563851.3494095848,
        "Argument of Periapsis(deg)": 0.014988874618983185,
        "Eccentricity": 0.0,
        "Inclination(deg)": 53.0,
        "Latitude(deg)": -33.43868276524207,
        "Longitude(deg)": 102.87425456880385,
        "Mean Anomaly(deg)": -136.68265824706125,
        "RAAN(deg)": 354.97769288666865,
        "Satellite Name": "Starlink Shell 1 1574",
        "Satellite Number": 1574,
        "Semi-Major Axis(m)": 6931778.249405717,
        "Time(s)": 430
    },
    {
        "Altitude(m)": 564025.5761676682,
        "Argument of Periapsis(deg)": 0.015337453098494424,
        "Eccentricity": 0.0,
        "Inclination(deg)": 53.0,
        "Latitude(deg)": -33.873169039686836,
        "Longitude(deg)": 103.37427440032026,
        "Mean Anomaly(deg)": -136.0558270435045,
        "RAAN(deg)": 354.9771741165912,
        "Satellite Name": "Starlink Shell 1 1574",
        "Satellite Number": 1574,
        "Semi-Major Axis(m)": 6931778.249405717,
        "Time(s)": 440
    },
    {
        "Altitude(m)": 564199.3876031669,
        "Argument of Periapsis(deg)": 0.01568603157800566,
        "Eccentricity": 0.0,
        "Inclination(deg)": 53.0,
        "Latitude(deg)": -34.30521126123707,
        "Longitude(deg)": 103.87977190885917,
        "Mean Anomaly(deg)": -135.42899583994785,
        "RAAN(deg)": 354.9766553465137,
        "Satellite Name": "Starlink Shell 1 1574",
        "Satellite Number": 1574,
        "Semi-Major Axis(m)": 6931778.249405717,
        "Time(s)": 450
    },
    {
        "Altitude(m)": 564372.7173692372,
        "Argument of Periapsis(deg)": 0.0160346100575169,
        "Eccentricity": 0.0,
        "Inclination(deg)": 53.0,
        "Latitude(deg)": -34.73474592597479,
        "Longitude(deg)": 104.39086169705872,
        "Mean Anomaly(deg)": -134.80216463639118,
        "RAAN(deg)": 354.97613657643626,
        "Satellite Name": "Starlink Shell 1 1574",
        "Satellite Number": 1574,
        "Semi-Major Axis(m)": 6931778.249405717,
        "Time(s)": 460
    },
    {
        "Altitude(m)": 564545.4991882122,
        "Argument of Periapsis(deg)": 0.016383188537028134,
        "Eccentricity": 0.0,
        "Inclination(deg)": 53.0,
        "Latitude(deg)": -35.16170806779946,
        "Longitude(deg)": 104.90765975305594,
        "Mean Anomaly(deg)": -134.17533343283444,
        "RAAN(deg)": 354.9756178063588,
        "Satellite Name": "Starlink Shell 1 1574",
        "Satellite Number": 1574,
        "Semi-Major Axis(m)": 6931778.249405717,
        "Time(s)": 470
    },
    {
        "Altitude(m)": 564717.666881224,
        "Argument of Periapsis(deg)": 0.01673176701653937,
        "Eccentricity": 0.0,
        "Inclination(deg)": 53.0,
        "Latitude(deg)": -35.58603122669162,
        "Longitude(deg)": 105.43028236616848,
        "Mean Anomaly(deg)": -133.54850222927766,
        "RAAN(deg)": 354.97509903628134,
        "Satellite Name": "Starlink Shell 1 1574",
        "Satellite Number": 1574,
        "Semi-Major Axis(m)": 6931778.249405717,
        "Time(s)": 480
    },
    {
        "Altitude(m)": 564889.1543977193,
        "Argument of Periapsis(deg)": 0.017080345496050607,
        "Eccentricity": 0.0,
        "Inclination(deg)": 53.0,
        "Latitude(deg)": -36.00764741740337,
        "Longitude(deg)": 105.95884654696839,
        "Mean Anomaly(deg)": -132.92167102572097,
        "RAAN(deg)": 354.9745802662038,
        "Satellite Name": "Starlink Shell 1 1574",
        "Satellite Number": 1574,
        "Semi-Major Axis(m)": 6931778.249405717,
        "Time(s)": 490
    },
    {
        "Altitude(m)": 565059.8958449856,
        "Argument of Periapsis(deg)": 0.017428923975561842,
        "Eccentricity": 0.0,
        "Inclination(deg)": 53.0,
        "Latitude(deg)": -36.426487098695034,
        "Longitude(deg)": 106.4934704383494,
        "Mean Anomaly(deg)": -132.29483982216428,
        "RAAN(deg)": 354.9740614961264,
        "Satellite Name": "Starlink Shell 1 1574",
        "Satellite Number": 1574,
        "Semi-Major Axis(m)": 6931778.249405717,
        "Time(s)": 500
    },
    {
        "Altitude(m)": 565229.8255175122,
        "Argument of Periapsis(deg)": 0.01777750245507308,
        "Eccentricity": 0.0,
        "Inclination(deg)": 53.0,
        "Latitude(deg)": -36.84247914324902,
        "Longitude(deg)": 107.03427220417537,
        "Mean Anomaly(deg)": -131.6680086186075,
        "RAAN(deg)": 354.9735427260489,
        "Satellite Name": "Starlink Shell 1 1574",
        "Satellite Number": 1574,
        "Semi-Major Axis(m)": 6931778.249405717,
        "Time(s)": 510
    },
    {
        "Altitude(m)": 565398.8779262991,
        "Argument of Periapsis(deg)": 0.018126080934584315,
        "Eccentricity": 0.0,
        "Inclination(deg)": 53.0,
        "Latitude(deg)": -37.255550808404266,
        "Longitude(deg)": 107.5813704206951,
        "Mean Anomaly(deg)": -131.04117741505078,
        "RAAN(deg)": 354.9730239559714,
        "Satellite Name": "Starlink Shell 1 1574",
        "Satellite Number": 1574,
        "Semi-Major Axis(m)": 6931778.249405717,
        "Time(s)": 520
    },
    {
        "Altitude(m)": 565566.9878280356,
        "Argument of Periapsis(deg)": 0.018474659414095554,
        "Eccentricity": 0.0,
        "Inclination(deg)": 53.0,
        "Latitude(deg)": -37.66562770786527,
        "Longitude(deg)": 108.13488445728008,
        "Mean Anomaly(deg)": -130.41434621149418,
        "RAAN(deg)": 354.97250518589397,
        "Satellite Name": "Starlink Shell 1 1574",
        "Satellite Number": 1574,
        "Semi-Major Axis(m)": 6931778.249405717,
        "Time(s)": 530
    },
    {
        "Altitude(m)": 565734.0902541599,
        "Argument of Periapsis(deg)": 0.018823237893606792,
        "Eccentricity": 0.0,
        "Inclination(deg)": 53.0,
        "Latitude(deg)": -38.07263378455236,
        "Longitude(deg)": 108.6949333330328,
        "Mean Anomaly(deg)": -129.7875150079374,
        "RAAN(deg)": 354.9719864158165,
        "Satellite Name": "Starlink Shell 1 1574",
        "Satellite Number": 1574,
        "Semi-Major Axis(m)": 6931778.249405717,
        "Time(s)": 540
    },
    {
        "Altitude(m)": 565900.120539773,
        "Argument of Periapsis(deg)": 0.019171816373118027,
        "Eccentricity": 0.0,
        "Inclination(deg)": 53.0,
        "Latitude(deg)": -38.47649128477325,
        "Longitude(deg)": 109.26163607441433,
        "Mean Anomaly(deg)": -129.16068380438062,
        "RAAN(deg)": 354.971467645739,
        "Satellite Name": "Starlink Shell 1 1574",
        "Satellite Number": 1574,
        "Semi-Major Axis(m)": 6931778.249405717,
        "Time(s)": 550
    },
    {
        "Altitude(m)": 566065.0143524085,
        "Argument of Periapsis(deg)": 0.019520394852629266,
        "Eccentricity": 0.0,
        "Inclination(deg)": 53.0,
        "Latitude(deg)": -38.87712073390982,
        "Longitude(deg)": 109.83511206042431,
        "Mean Anomaly(deg)": -128.53385260082402,
        "RAAN(deg)": 354.9709488756615,
        "Satellite Name": "Starlink Shell 1 1574",
        "Satellite Number": 1574,
        "Semi-Major Axis(m)": 6931778.249405717,
        "Time(s)": 560
    }
]